H1 CPF 01  gfz 2022 10 10 00  7831 tandemx   
H2 1003001  6202 36605    2022 10 10 00 59 42 2022 10 15 00 00 42   120 1 1  0 0 0
H9
10 0 59866  55422.000000  0    2069533.113   2718703.285  -5988748.699
10 0 59866  55542.000000  0    2729513.450   3133318.496  -5501640.631
10 0 59866  55662.000000  0    3348792.237   3482345.549  -4918344.575
10 0 59866  55782.000000  0    3915364.057   3760480.025  -4248970.872
10 0 59866  55902.000000  0    4418034.333   3963838.011  -3505155.274
10 0 59866  56022.000000  0    4846645.966   4090014.630  -2699864.536
10 0 59866  56142.000000  0    5192290.038   4138113.551  -1847174.799
10 0 59866  56262.000000  0    5447496.917   4108747.038   -962026.839
10 0 59866  56382.000000  0    5606401.904   4004005.202    -59961.541
10 0 59866  56502.000000  0    5664881.186   3827395.643    843157.890
10 0 59866  56622.000000  0    5620654.948   3583753.574   1731432.719
10 0 59866  56742.000000  0    5473352.864   3279124.040   2589217.514
10 0 59866  56862.000000  0    5224540.628   2920620.930   3401404.572
10 0 59866  56982.000000  0    4877706.786   2516265.042   4153697.741
10 0 59866  57102.000000  0    4438209.455   2074804.912   4832867.811
10 0 59866  57222.000000  0    3913189.139   1605528.165   5426985.372
10 0 59866  57342.000000  0    3311444.546   1118065.615   5925631.318
10 0 59866  57462.000000  0    2643275.935    622191.700   6320074.038
10 0 59866  57582.000000  0    1920303.085    127628.891   6603414.510
10 0 59866  57702.000000  0    1155260.545   -356141.389   6770701.879
10 0 59866  57822.000000  0     361770.640   -820060.150   6819016.399
10 0 59866  57942.000000  0    -445900.448  -1255660.037   6747516.218
10 0 59866  58062.000000  0   -1253098.889  -1655219.552   6557450.499
10 0 59866  58182.000000  0   -2045047.939  -2011899.937   6252137.459
10 0 59866  58302.000000  0   -2807116.045  -2319861.525   5836910.219
10 0 59866  58422.000000  0   -3525088.197  -2574361.011   5319032.409
10 0 59866  58542.000000  0   -4185436.584  -2771827.149   4707576.837
10 0 59866  58662.000000  0   -4775580.581  -2909911.567   4013270.470
10 0 59866  58782.000000  0   -5284132.570  -2987513.767   3248309.489
10 0 59866  58902.000000  0   -5701124.823  -3004780.573   2426147.395
10 0 59866  59022.000000  0   -6018213.329  -2963080.532   1561257.687
10 0 59866  59142.000000  0   -6228851.682  -2864952.764    668873.575
10 0 59866  59262.000000  0   -6328429.392  -2714029.627   -235287.667
10 0 59866  59382.000000  0   -6314373.096  -2514937.441  -1135309.968
10 0 59866  59502.000000  0   -6186205.571  -2273176.134  -2015368.929
10 0 59866  59622.000000  0   -5945560.907  -1994981.977  -2860017.672
10 0 59866  59742.000000  0   -5596158.427  -1687177.308  -3654462.720
10 0 59866  59862.000000  0   -5143735.480  -1357011.069  -4384824.928
10 0 59866  59982.000000  0   -4595942.024  -1011994.287  -5038380.035
10 0 59866  60102.000000  0   -3962199.582   -659734.062  -5603775.350
10 0 59866  60222.000000  0   -3253528.283   -307770.392  -6071217.928
10 0 59866  60342.000000  0   -2482347.614     36580.633  -6432632.687
10 0 59866  60462.000000  0   -1662254.961    366373.821  -6681790.118
10 0 59866  60582.000000  0    -807785.380    675169.301  -6814402.577
10 0 59866  60702.000000  0      65841.970    957154.191  -6828189.474
10 0 59866  60822.000000  0     942987.671   1207248.418  -6722911.557
10 0 59866  60942.000000  0    1807864.981   1421193.437  -6500377.392
10 0 59866  61062.000000  0    2644818.618   1595624.338  -6164415.985
10 0 59866  61182.000000  0    3438603.778   1728122.383  -5720817.317
10 0 59866  61302.000000  0    4174660.364   1817247.437  -5177241.713
10 0 59866  61422.000000  0    4839380.953   1862550.875  -4543099.941
10 0 59866  61542.000000  0    5420367.679   1864568.033  -3829400.962
10 0 59866  61662.000000  0    5906670.734   1824789.442  -3048569.836
10 0 59866  61782.000000  0    6289004.962   1745611.700  -2214239.020
10 0 59866  61902.000000  0    6559939.601   1630269.098  -1341013.224
10 0 59866  62022.000000  0    6714053.795   1482746.300   -444212.400
10 0 59866  62142.000000  0    6748054.322   1307673.823    460402.191
10 0 59866  62262.000000  0    6660849.741   1110209.886   1356911.679
10 0 59866  62382.000000  0    6453583.829    895911.165   2229527.401
10 0 59866  62502.000000  0    6129622.067    670594.437   3062879.227
10 0 59866  62622.000000  0    5694493.106    440194.164   3842293.630
10 0 59866  62742.000000  0    5155786.342    210619.269   4554058.040
10 0 59866  62862.000000  0    4523010.605    -12386.037   5185663.432
10 0 59866  62982.000000  0    3807416.448   -223376.613   5726025.200
10 0 59866  63102.000000  0    3021785.320   -417330.600   6165673.580
10 0 59866  63222.000000  0    2180193.979   -589760.738   6496913.946
10 0 59866  63342.000000  0    1297757.594   -736812.181   6713955.985
10 0 59866  63462.000000  0     390354.381   -855344.678   6813010.263
10 0 59866  63582.000000  0    -525661.912   -942996.994   6792349.098
10 0 59866  63702.000000  0   -1433756.012   -998233.321   6652333.831
10 0 59866  63822.000000  0   -2317508.244  -1020370.193   6395408.241
10 0 59866  63942.000000  0   -3160909.587  -1009583.490   6026058.566
10 0 59866  64062.000000  0   -3948652.685   -966895.825   5550741.965
10 0 59866  64182.000000  0   -4666414.470   -894145.464   4977780.385
10 0 59866  64302.000000  0   -5301123.664   -793936.220   4317220.252
10 0 59866  64422.000000  0   -5841207.069   -669569.112   3580659.839
10 0 59866  64542.000000  0   -6276809.009   -524957.274   2781047.732
10 0 59866  64662.000000  0   -6599981.338   -364525.954   1932456.311
10 0 59866  64782.000000  0   -6804839.073   -193099.463   1049830.542
10 0 59866  64902.000000  0   -6887674.619    -15778.780    148717.763
10 0 59866  65022.000000  0   -6847028.379    162187.848   -755014.721
10 0 59866  65142.000000  0   -6683713.563    335538.183  -1645468.425
10 0 59866  65262.000000  0   -6400794.810    499128.816  -2507000.621
10 0 59866  65382.000000  0   -6003524.705    648064.742  -3324505.550
10 0 59866  65502.000000  0   -5499234.481    777822.678  -4083684.855
10 0 59866  65622.000000  0   -4897185.066    884364.724  -4771296.920
10 0 59866  65742.000000  0   -4208383.939    964239.396  -5375383.609
10 0 59866  65862.000000  0   -3445372.558   1014668.139  -5885469.970
10 0 59866  65982.000000  0   -2621989.701   1033615.193  -6292735.395
10 0 59866  66102.000000  0   -1753116.442   1019840.154  -6590154.211
10 0 59866  66222.000000  0    -854406.310    972933.615  -6772605.905
10 0 59866  66342.000000  0      57993.325    893333.721  -6836952.412
10 0 59866  66462.000000  0     967723.477    782324.450  -6782085.997
10 0 59866  66582.000000  0    1858499.807    642015.229  -6608948.958
10 0 59866  66702.000000  0    2714398.473    475302.190  -6320519.042
10 0 59866  66822.000000  0    3520135.767    285812.139  -5921763.668
10 0 59866  66942.000000  0    4261337.958     77828.794  -5419562.326
10 0 59866  67062.000000  0    4924797.581   -143796.882  -4822599.379
10 0 59866  67182.000000  0    5498714.530   -373750.797  -4141225.865
10 0 59866  67302.000000  0    5972914.191   -606373.148  -3387289.557
10 0 59866  67422.000000  0    6339038.493   -835786.675  -2573937.171
10 0 59866  67542.000000  0    6590706.130  -1056033.439  -1715390.025
10 0 59866  67662.000000  0    6723636.478  -1261216.115   -826695.795
10 0 59866  67782.000000  0    6735733.080  -1445640.843     76538.043
10 0 59866  67902.000000  0    6627125.053  -1603958.081    978424.158
10 0 59866  68022.000000  0    6400163.028  -1731297.850   1863083.351
10 0 59866  68142.000000  0    6059370.723  -1823395.972   2714933.119
10 0 59866  68262.000000  0    5611351.876  -1876706.681   3518971.360
10 0 59866  68382.000000  0    5064655.413  -1888500.201   4261046.787
10 0 59866  68502.000000  0    4429603.591  -1856942.194   4928111.071
10 0 59866  68622.000000  0    3718088.820  -1781152.781   5508448.960
10 0 59866  68742.000000  0    2943341.837  -1661245.256   5991883.253
10 0 59866  68862.000000  0    2119677.168  -1498342.970   6369948.136
10 0 59866  68982.000000  0    1262223.510  -1294574.901   6636031.705
10 0 59866  69102.000000  0     386641.918  -1053049.330   6785486.062
10 0 59866  69222.000000  0    -491161.909   -777805.819   6815702.805
10 0 59866  69342.000000  0   -1355325.749   -473747.355   6726154.575
10 0 59866  69462.000000  0   -2190316.059   -146553.254   6518403.548
10 0 59866  69582.000000  0   -2981205.961    197426.285   6196076.295
10 0 59866  69702.000000  0   -3713942.763    551292.094   5764805.436
10 0 59866  69822.000000  0   -4375601.260    907732.205   5232137.346
10 0 59866  69942.000000  0   -4954617.511   1259170.461   4607406.039
10 0 59866  70062.000000  0   -5440998.937   1597925.273   3901574.645
10 0 59866  70182.000000  0   -5826505.052   1916374.497   3127045.759
10 0 59866  70302.000000  0   -6104795.625   2207123.204   2297444.775
10 0 59866  70422.000000  0   -6271543.438   2463170.480   1427378.782
10 0 59866  70542.000000  0   -6324507.980   2678071.551    532174.023
10 0 59866  70662.000000  0   -6263566.074   2846090.171   -372402.103
10 0 59866  70782.000000  0   -6090700.076   2962337.440  -1270427.520
10 0 59866  70902.000000  0   -5809943.389   3022893.597  -2146114.535
10 0 59866  71022.000000  0   -5427284.719   3024910.215  -2984096.002
10 0 59866  71142.000000  0   -4950533.042   2966688.910  -3769700.282
10 0 59866  71262.000000  0   -4389148.978   2847736.009  -4489209.550
10 0 59866  71382.000000  0   -3754047.048   2668791.965  -5130096.412
10 0 59866  71502.000000  0   -3057374.497   2431835.315  -5681234.657
10 0 59866  71622.000000  0   -2312273.733   2140062.715  -6133082.453
10 0 59866  71742.000000  0   -1532630.638   1797844.729  -6477837.677
10 0 59866  71862.000000  0    -732814.982   1410658.252  -6709560.003
99
